GLOBALSTAR M068         
1 32266U 07048D   24147.96745993 -.00000040  00000+0  35561-3 0  9995
2 32266  51.9906  39.5492 0001438  35.6382 337.6249 12.62790241768768
GLOBALSTAR M079         
1 37188U 10054A   24148.02078681 -.00000064  00000+0  22112-3 0  9999
2 37188  52.0035 235.3387 0000685 149.0386  22.5994 12.62270525628363
GLOBALSTAR M074         
1 37189U 10054B   24147.55700977 -.00000059  00000+0  25229-3 0  9993
2 37189  52.0011 236.1338 0000441 136.3985 325.9389 12.62269138628239
GLOBALSTAR M076         
1 37190U 10054C   24147.67195343 -.00000053  00000+0  28252-3 0  9996
2 37190  52.0023 235.9171 0000627 180.6912 326.0666 12.62261602627961
GLOBALSTAR M077         
1 37191U 10054D   24147.90202954 -.00000086  00000+0  99750-4 0  9998
2 37191  52.0054 191.9641 0000116 173.1684 358.1830 12.62273715628367
GLOBALSTAR M075         
1 37192U 10054E   24147.67564736 -.00000065  00000+0  21380-3 0  9992
2 37192  51.9953 278.3789 0000807 123.3667 339.3897 12.62274754627190
GLOBALSTAR M073         
1 37193U 10054F   24147.84944620 -.00000084  00000+0  11157-3 0  9998
2 37193  52.0042 191.3762 0000265 177.5791 354.1141 12.62265845629048
GLOBALSTAR M083         
1 37739U 11033A   24148.22353069 -.00000106  00000+0 -11474-4 0  9995
2 37739  51.9843 139.4927 0000380  71.4256 302.4577 12.62270204598479
GLOBALSTAR M088         
1 37740U 11033B   24147.89455243 -.00000089  00000+0  80214-4 0  9993
2 37740  51.9754  46.3101 0000855  78.3029   0.3065 12.62268386593618
GLOBALSTAR M091         
1 37741U 11033C   24147.89353130 -.00000086  00000+0  10168-3 0  9993
2 37741  52.0020   9.1804 0001147  90.3570 282.4845 12.62263049594402
GLOBALSTAR M085         
1 37742U 11033D   24148.23174863 -.00000089  00000+0  85219-4 0  9990
2 37742  51.9879 319.5297 0001100 106.8698  64.6309 12.62271379595445
GLOBALSTAR M081         
1 37743U 11033E   24147.74839049 -.00000081  00000+0  12757-3 0  9998
2 37743  51.9970 323.5511 0001063 116.0447 257.2166 12.62265351595045
GLOBALSTAR M089         
1 37744U 11033F   24147.56560597 -.00000080  00000+0  13344-3 0  9990
2 37744  51.9934 278.4100 0000526 149.8615 291.0887 12.62264081595867
GLOBALSTAR M084         
1 38040U 11080A   24148.21243887 -.00000109  00000+0 -29103-4 0  9999
2 38040  51.9984 143.5198 0000254 325.8946 117.5171 12.62262921574206
GLOBALSTAR M080         
1 38041U 11080B   24147.73054455 -.00000108  00000+0 -23566-4 0  9993
2 38041  52.0035 146.4584 0000346 268.5849 263.6110 12.62273200573986
GLOBALSTAR M082         
1 38042U 11080C   24148.20460196 -.00000110  00000+0 -37087-4 0  9996
2 38042  52.0071 100.4205 0001013  56.2590  50.5498 12.62269701574922
GLOBALSTAR M092         
1 38043U 11080D   24148.16205493 -.00000092  00000+0  66950-4 0  9998
2 38043  52.0065 190.9062 0000070 101.0739 293.8771 12.62262963573419
GLOBALSTAR M090         
1 38044U 11080E   24147.89832718 -.00000104  00000+0 -38859-5 0  9997
2 38044  51.9882  95.6580 0000735  60.7869 334.0831 12.62263443574874
GLOBALSTAR M086         
1 38045U 11080F   24148.17743264 -.00000104  00000+0 -21457-5 0  9993
2 38045  51.9896  95.3285 0000675 156.9914 307.3948 12.62271223574913
GLOBALSTAR M097         
1 39072U 13005A   24147.86466636 -.00000085  00000+0  10352-3 0  9990
2 39072  52.0070  10.4406 0001003  94.7373 265.3608 12.62263254522023
GLOBALSTAR M093         
1 39073U 13005B   24147.91720362 -.00000086  00000+0  99020-4 0  9997
2 39073  51.9833   4.2005 0001117  97.9167 262.1826 12.62259538522103
GLOBALSTAR M094         
1 39074U 13005C   24147.83799239 -.00000075  00000+0  16099-3 0  9990
2 39074  51.9963 278.4367 0000944 125.6285 234.4670 12.62266308523586
GLOBALSTAR M096         
1 39075U 13005D   24147.93030475 -.00000092  00000+0  67368-4 0  9997
2 39075  52.0087 326.3686 0001187 107.3999 252.6997 12.62266043522514
GLOBALSTAR M078         
1 39076U 13005E   24147.98351325 -.00000003  00000+0  56332-3 0  9993
2 39076  51.9892  51.2429 0001581  54.8786 305.2229 12.62276676521351
GLOBALSTAR M095         
1 39077U 13005F   24147.93000970 -.00000080  00000+0  13394-3 0  9992
2 39077  51.9819  48.7892 0001371  75.0755 285.0263 12.62266552520998
GLOBALSTAR M087         
1 52888U 22064A   24147.81279845 -.00000076  00000+0  98508-4 0  9994
2 52888  51.9761 282.9129 0008708 311.9457  48.0700 13.37575007 94660
